[{"OBJECT_NAME":"IRIDIUM 170","OBJECT_ID":"2019-002J","EPOCH":"2026-03-09T22:22:31.188288","MEAN_MOTION":14.72262238,"ECCENTRICITY":0.00027319,"INCLINATION":86.6095,"RA_OF_ASC_NODE":35.0236,"ARG_OF_PERICENTER":88.7648,"MEAN_ANOMALY":271.3882,"EPHEMERIS_TYPE":0,"CLASSIFICATION_TYPE":"U","NORAD_CAT_ID":43930,"ELEMENT_SET_NO":999,"REV_AT_EPOCH":38465,"BSTAR":0.00020964732,"MEAN_MOTION_DOT":1.347e-5,"MEAN_MOTION_DDOT":0},{"OBJECT_NAME":"SL-16 DEB","OBJECT_ID":"1993-016BL","EPOCH":"2026-03-05T18:01:22.151712","MEAN_MOTION":14.78182986,"ECCENTRICITY":0.0045093,"INCLINATION":71.0094,"RA_OF_ASC_NODE":189.5331,"ARG_OF_PERICENTER":24.0544,"MEAN_ANOMALY":336.2703,"EPHEMERIS_TYPE":0,"CLASSIFICATION_TYPE":"U","NORAD_CAT_ID":39886,"ELEMENT_SET_NO":999,"REV_AT_EPOCH":62700,"BSTAR":0.0010794813,"MEAN_MOTION_DOT":7.906e-5,"MEAN_MOTION_DDOT":0}]
